STARLINK-2141_new
1 17731C 21017K   21326.13748269 -.00021097  00000-0 -14137-2 0  3260
2 17731  53.0558  53.1256 0001205  70.6582 165.1533 15.06417168    12
STARLINK-2141_old
1 27731C 21017K   21325.14199613  .00004989  00000-0  33427-3 0  3255
2 27731  53.0562  57.5941 0001283  72.7110 161.5446 15.06395977    18
